QIANFAN-86              
1 63172U 25046P   26085.54124462  .00000037  00000+0  38795-4 0  9990
2 63172  88.9723 309.0574 0010533 182.6904 177.4192 13.51005633 61564
QIANFAN-87              
1 63173U 25046Q   26085.51244043  .00000069  00000+0  87760-4 0  9997
2 63173  88.9720 309.1679 0011360 178.2262 181.8931 13.51001329 61496
QIANFAN-88              
1 63174U 25046R   26085.52889876  .00000042  00000+0  45643-4 0  9993
2 63174  88.9722 309.1234 0011491 187.0329 173.0662 13.51002428 61522
QIANFAN-89              
1 63175U 25046S   26085.49187516  .00000031  00000+0  28834-4 0  9993
2 63175  88.9723 309.3164 0016235 179.6197 180.4970 13.51012736 61414
QIANFAN-90              
1 63176U 25046T   26085.44663529  .00000098  00000+0  13244-3 0  9993
2 63176  88.9723 309.2936 0013244 176.7369 183.3871 13.51014191 61427
QIANFAN-91              
1 66033U 25233A   26085.47924857  .00000089  00000+0  11981-3 0  9999
2 66033  88.9966  51.5423 0002308  87.9440 272.1975 13.51006496 22014
QIANFAN-92              
1 66034U 25233B   26085.48739654  .00000094  00000+0  12627-3 0  9994
2 66034  88.9950  51.5268 0002122  84.6944 275.4449 13.51007553 22019
QIANFAN-93              
1 66035U 25233C   26085.49564181  .00000090  00000+0  12098-3 0  9995
2 66035  88.9976  51.5554 0002246  87.4187 272.7221 13.51006961 22013
QIANFAN-94              
1 66036U 25233D   26085.48334124  .00000095  00000+0  12919-3 0  9994
2 66036  88.9973  51.4628 0002243  83.2629 276.8777 13.50993755 22065
QIANFAN-95              
1 66037U 25233E   26085.49135536  .00000097  00000+0  13122-3 0  9991
2 66037  88.9971  51.0078 0002409  85.7043 274.4383 13.51002608 22314
QIANFAN-96              
1 66038U 25233F   26085.44220168  .00000082  00000+0  10772-3 0  9995
2 66038  88.9968  51.5581 0002358  88.8729 271.2692 13.51006560 22008
QIANFAN-97              
1 66039U 25233G   26085.49980207  .00000083  00000+0  10921-3 0  9995
2 66039  88.9971  51.5336 0002290  87.6895 272.4518 13.51005931 22020
QIANFAN-98              
1 66040U 25233H   26085.50796684  .00000084  00000+0  11094-3 0  9996
2 66040  88.9961  51.2727 0002400  73.8287 286.3128 13.51006718 22167
QIANFAN-99              
1 66041U 25233J   26085.51212803  .00000081  00000+0  10643-3 0  9990
2 66041  88.9972  51.5359 0002437  78.4943 281.6482 13.51006680 22028
QIANFAN-100             
1 66042U 25233K   26085.50385722  .00000087  00000+0  11622-3 0  9995
2 66042  88.9983  51.4545 0002259  87.8937 272.2473 13.51007677 22074
QIANFAN-101             
1 66043U 25233L   26085.46773877  .00000519  00000+0  20816-3 0  9998
2 66043  88.9972  50.0512 0017090  59.5388 300.7491 14.26758021 22837
QIANFAN-102             
1 66044U 25233M   26085.52450289  .00000089  00000+0  11951-3 0  9997
2 66044  88.9970  51.4463 0002286  82.6742 277.4669 13.50994531 22075
