[{"OBJECT_NAME":"QIANFAN-86","OBJECT_ID":"2025-046P","EPOCH":"2026-03-26T12:59:23.535168","MEAN_MOTION":13.51005633,"ECCENTRICITY":0.0010533,"INCLINATION":88.9723,"RA_OF_ASC_NODE":309.0574,"ARG_OF_PERICENTER":182.6904,"MEAN_ANOMALY":177.4192,"EPHEMERIS_TYPE":0,"CLASSIFICATION_TYPE":"U","NORAD_CAT_ID":63172,"ELEMENT_SET_NO":999,"REV_AT_EPOCH":6156,"BSTAR":3.8795e-5,"MEAN_MOTION_DOT":3.7e-7,"MEAN_MOTION_DDOT":0},{"OBJECT_NAME":"QIANFAN-87","OBJECT_ID":"2025-046Q","EPOCH":"2026-03-26T12:17:54.853152","MEAN_MOTION":13.51001329,"ECCENTRICITY":0.001136,"INCLINATION":88.972,"RA_OF_ASC_NODE":309.1679,"ARG_OF_PERICENTER":178.2262,"MEAN_ANOMALY":181.8931,"EPHEMERIS_TYPE":0,"CLASSIFICATION_TYPE":"U","NORAD_CAT_ID":63173,"ELEMENT_SET_NO":999,"REV_AT_EPOCH":6149,"BSTAR":8.776e-5,"MEAN_MOTION_DOT":6.9e-7,"MEAN_MOTION_DDOT":0},{"OBJECT_NAME":"QIANFAN-88","OBJECT_ID":"2025-046R","EPOCH":"2026-03-26T12:41:36.852864","MEAN_MOTION":13.51002428,"ECCENTRICITY":0.0011491,"INCLINATION":88.9722,"RA_OF_ASC_NODE":309.1234,"ARG_OF_PERICENTER":187.0329,"MEAN_ANOMALY":173.0662,"EPHEMERIS_TYPE":0,"CLASSIFICATION_TYPE":"U","NORAD_CAT_ID":63174,"ELEMENT_SET_NO":999,"REV_AT_EPOCH":6152,"BSTAR":4.5643e-5,"MEAN_MOTION_DOT":4.2e-7,"MEAN_MOTION_DDOT":0},{"OBJECT_NAME":"QIANFAN-89","OBJECT_ID":"2025-046S","EPOCH":"2026-03-26T11:48:18.013824","MEAN_MOTION":13.51012736,"ECCENTRICITY":0.0016235,"INCLINATION":88.9723,"RA_OF_ASC_NODE":309.3164,"ARG_OF_PERICENTER":179.6197,"MEAN_ANOMALY":180.497,"EPHEMERIS_TYPE":0,"CLASSIFICATION_TYPE":"U","NORAD_CAT_ID":63175,"ELEMENT_SET_NO":999,"REV_AT_EPOCH":6141,"BSTAR":2.8834e-5,"MEAN_MOTION_DOT":3.1e-7,"MEAN_MOTION_DDOT":0},{"OBJECT_NAME":"QIANFAN-90","OBJECT_ID":"2025-046T","EPOCH":"2026-03-26T10:43:09.289056","MEAN_MOTION":13.51014191,"ECCENTRICITY":0.0013244,"INCLINATION":88.9723,"RA_OF_ASC_NODE":309.2936,"ARG_OF_PERICENTER":176.7369,"MEAN_ANOMALY":183.3871,"EPHEMERIS_TYPE":0,"CLASSIFICATION_TYPE":"U","NORAD_CAT_ID":63176,"ELEMENT_SET_NO":999,"REV_AT_EPOCH":6142,"BSTAR":0.00013244,"MEAN_MOTION_DOT":9.8e-7,"MEAN_MOTION_DDOT":0},{"OBJECT_NAME":"QIANFAN-91","OBJECT_ID":"2025-233A","EPOCH":"2026-03-26T11:30:07.076448","MEAN_MOTION":13.51006496,"ECCENTRICITY":0.0002308,"INCLINATION":88.9966,"RA_OF_ASC_NODE":51.5423,"ARG_OF_PERICENTER":87.944,"MEAN_ANOMALY":272.1975,"EPHEMERIS_TYPE":0,"CLASSIFICATION_TYPE":"U","NORAD_CAT_ID":66033,"ELEMENT_SET_NO":999,"REV_AT_EPOCH":2201,"BSTAR":0.00011981,"MEAN_MOTION_DOT":8.9e-7,"MEAN_MOTION_DDOT":0},{"OBJECT_NAME":"QIANFAN-92","OBJECT_ID":"2025-233B","EPOCH":"2026-03-26T11:41:51.061056","MEAN_MOTION":13.51007553,"ECCENTRICITY":0.0002122,"INCLINATION":88.995,"RA_OF_ASC_NODE":51.5268,"ARG_OF_PERICENTER":84.6944,"MEAN_ANOMALY":275.4449,"EPHEMERIS_TYPE":0,"CLASSIFICATION_TYPE":"U","NORAD_CAT_ID":66034,"ELEMENT_SET_NO":999,"REV_AT_EPOCH":2201,"BSTAR":0.00012627,"MEAN_MOTION_DOT":9.4e-7,"MEAN_MOTION_DDOT":0},{"OBJECT_NAME":"QIANFAN-93","OBJECT_ID":"2025-233C","EPOCH":"2026-03-26T11:53:43.452384","MEAN_MOTION":13.51006961,"ECCENTRICITY":0.0002246,"INCLINATION":88.9976,"RA_OF_ASC_NODE":51.5554,"ARG_OF_PERICENTER":87.4187,"MEAN_ANOMALY":272.7221,"EPHEMERIS_TYPE":0,"CLASSIFICATION_TYPE":"U","NORAD_CAT_ID":66035,"ELEMENT_SET_NO":999,"REV_AT_EPOCH":2201,"BSTAR":0.00012098,"MEAN_MOTION_DOT":9.0e-7,"MEAN_MOTION_DDOT":0},{"OBJECT_NAME":"QIANFAN-94","OBJECT_ID":"2025-233D","EPOCH":"2026-03-26T11:36:00.683136","MEAN_MOTION":13.50993755,"ECCENTRICITY":0.0002243,"INCLINATION":88.9973,"RA_OF_ASC_NODE":51.4628,"ARG_OF_PERICENTER":83.2629,"MEAN_ANOMALY":276.8777,"EPHEMERIS_TYPE":0,"CLASSIFICATION_TYPE":"U","NORAD_CAT_ID":66036,"ELEMENT_SET_NO":999,"REV_AT_EPOCH":2206,"BSTAR":0.00012919,"MEAN_MOTION_DOT":9.5e-7,"MEAN_MOTION_DDOT":0},{"OBJECT_NAME":"QIANFAN-95","OBJECT_ID":"2025-233E","EPOCH":"2026-03-26T11:47:33.103104","MEAN_MOTION":13.51002608,"ECCENTRICITY":0.0002409,"INCLINATION":88.9971,"RA_OF_ASC_NODE":51.0078,"ARG_OF_PERICENTER":85.7043,"MEAN_ANOMALY":274.4383,"EPHEMERIS_TYPE":0,"CLASSIFICATION_TYPE":"U","NORAD_CAT_ID":66037,"ELEMENT_SET_NO":999,"REV_AT_EPOCH":2231,"BSTAR":0.00013122,"MEAN_MOTION_DOT":9.7e-7,"MEAN_MOTION_DDOT":0},{"OBJECT_NAME":"QIANFAN-96","OBJECT_ID":"2025-233F","EPOCH":"2026-03-26T10:36:46.225152","MEAN_MOTION":13.5100656,"ECCENTRICITY":0.0002358,"INCLINATION":88.9968,"RA_OF_ASC_NODE":51.5581,"ARG_OF_PERICENTER":88.8729,"MEAN_ANOMALY":271.2692,"EPHEMERIS_TYPE":0,"CLASSIFICATION_TYPE":"U","NORAD_CAT_ID":66038,"ELEMENT_SET_NO":999,"REV_AT_EPOCH":2200,"BSTAR":0.00010772,"MEAN_MOTION_DOT":8.2e-7,"MEAN_MOTION_DDOT":0},{"OBJECT_NAME":"QIANFAN-97","OBJECT_ID":"2025-233G","EPOCH":"2026-03-26T11:59:42.898848","MEAN_MOTION":13.51005931,"ECCENTRICITY":0.000229,"INCLINATION":88.9971,"RA_OF_ASC_NODE":51.5336,"ARG_OF_PERICENTER":87.6895,"MEAN_ANOMALY":272.4518,"EPHEMERIS_TYPE":0,"CLASSIFICATION_TYPE":"U","NORAD_CAT_ID":66039,"ELEMENT_SET_NO":999,"REV_AT_EPOCH":2202,"BSTAR":0.00010921,"MEAN_MOTION_DOT":8.3e-7,"MEAN_MOTION_DDOT":0},{"OBJECT_NAME":"QIANFAN-98","OBJECT_ID":"2025-233H","EPOCH":"2026-03-26T12:11:28.334976","MEAN_MOTION":13.51006718,"ECCENTRICITY":0.00024,"INCLINATION":88.9961,"RA_OF_ASC_NODE":51.2727,"ARG_OF_PERICENTER":73.8287,"MEAN_ANOMALY":286.3128,"EPHEMERIS_TYPE":0,"CLASSIFICATION_TYPE":"U","NORAD_CAT_ID":66040,"ELEMENT_SET_NO":999,"REV_AT_EPOCH":2216,"BSTAR":0.00011094,"MEAN_MOTION_DOT":8.4e-7,"MEAN_MOTION_DDOT":0},{"OBJECT_NAME":"QIANFAN-99","OBJECT_ID":"2025-233J","EPOCH":"2026-03-26T12:17:27.861792","MEAN_MOTION":13.5100668,"ECCENTRICITY":0.0002437,"INCLINATION":88.9972,"RA_OF_ASC_NODE":51.5359,"ARG_OF_PERICENTER":78.4943,"MEAN_ANOMALY":281.6482,"EPHEMERIS_TYPE":0,"CLASSIFICATION_TYPE":"U","NORAD_CAT_ID":66041,"ELEMENT_SET_NO":999,"REV_AT_EPOCH":2202,"BSTAR":0.00010643,"MEAN_MOTION_DOT":8.1e-7,"MEAN_MOTION_DDOT":0},{"OBJECT_NAME":"QIANFAN-100","OBJECT_ID":"2025-233K","EPOCH":"2026-03-26T12:05:33.263808","MEAN_MOTION":13.51007677,"ECCENTRICITY":0.0002259,"INCLINATION":88.9983,"RA_OF_ASC_NODE":51.4545,"ARG_OF_PERICENTER":87.8937,"MEAN_ANOMALY":272.2473,"EPHEMERIS_TYPE":0,"CLASSIFICATION_TYPE":"U","NORAD_CAT_ID":66042,"ELEMENT_SET_NO":999,"REV_AT_EPOCH":2207,"BSTAR":0.00011622,"MEAN_MOTION_DOT":8.7e-7,"MEAN_MOTION_DDOT":0},{"OBJECT_NAME":"QIANFAN-101","OBJECT_ID":"2025-233L","EPOCH":"2026-03-26T11:13:32.629728","MEAN_MOTION":14.26758021,"ECCENTRICITY":0.001709,"INCLINATION":88.9972,"RA_OF_ASC_NODE":50.0512,"ARG_OF_PERICENTER":59.5388,"MEAN_ANOMALY":300.7491,"EPHEMERIS_TYPE":0,"CLASSIFICATION_TYPE":"U","NORAD_CAT_ID":66043,"ELEMENT_SET_NO":999,"REV_AT_EPOCH":2283,"BSTAR":0.00020816,"MEAN_MOTION_DOT":5.19e-6,"MEAN_MOTION_DDOT":0},{"OBJECT_NAME":"QIANFAN-102","OBJECT_ID":"2025-233M","EPOCH":"2026-03-26T12:35:17.049696","MEAN_MOTION":13.50994531,"ECCENTRICITY":0.0002286,"INCLINATION":88.997,"RA_OF_ASC_NODE":51.4463,"ARG_OF_PERICENTER":82.6742,"MEAN_ANOMALY":277.4669,"EPHEMERIS_TYPE":0,"CLASSIFICATION_TYPE":"U","NORAD_CAT_ID":66044,"ELEMENT_SET_NO":999,"REV_AT_EPOCH":2207,"BSTAR":0.00011951,"MEAN_MOTION_DOT":8.9e-7,"MEAN_MOTION_DDOT":0}]
